{
  "type": "FeatureCollection",
  "features": [
    {
      "type": "Feature",
      "properties": {
        "norad_id": 33886,
        "name": "IRIDIUM 33 DEB",
        "group": "iridium-33-debris",
        "lat": -41.363941121543135,
        "lon": -106.07231698294507,
        "alt_km": 773.0326656286197,
        "timestamp": "2025-12-04T09:47:37.904762+00:00",
        "meta_object_name": "IRIDIUM 33 DEB",
        "meta_object_id": "1997-051BF",
        "meta_epoch": "2025-12-04T01:12:42.454368",
        "meta_mean_motion": 14.36035454,
        "meta_eccentricity": 0.0012064,
        "meta_inclination": 86.3832,
        "meta_ra_of_asc_node": 70.8856,
        "meta_arg_of_pericenter": 275.1243,
        "meta_mean_anomaly": 258.9006,
        "meta_ephemeris_type": 0,
        "meta_classification_type": "U",
        "meta_norad_cat_id": 33886,
        "meta_element_set_no": 999,
        "meta_rev_at_epoch": 87927,
        "meta_bstar": 0.00039445,
        "meta_mean_motion_dot": 1.166e-05,
        "meta_mean_motion_ddot": 0,
        "tle_line1": "1 33886U 97051BF  25338.05049137  .00001166  00000+0  39445-3 0  9991",
        "tle_line2": "2 33886  86.3832  70.8856 0012064 275.1243 258.9006 14.36035454879279"
      },
      "geometry": {
        "type": "Point",
        "coordinates": [
          -106.07231698294507,
          -41.363941121543135
        ]
      }
    },
    {
      "type": "Feature",
      "properties": {
        "norad_id": 33887,
        "name": "IRIDIUM 33 DEB",
        "group": "iridium-33-debris",
        "lat": 57.14894293180588,
        "lon": -178.76070809018225,
        "alt_km": 764.6749513144723,
        "timestamp": "2025-12-04T09:47:37.904773+00:00",
        "meta_object_name": "IRIDIUM 33 DEB",
        "meta_object_id": "1997-051BG",
        "meta_epoch": "2025-12-04T02:49:23.956032",
        "meta_mean_motion": 14.37209414,
        "meta_eccentricity": 0.0004037,
        "meta_inclination": 86.3051,
        "meta_ra_of_asc_node": 7.1078,
        "meta_arg_of_pericenter": 267.9412,
        "meta_mean_anomaly": 152.9243,
        "meta_ephemeris_type": 0,
        "meta_classification_type": "U",
        "meta_norad_cat_id": 33887,
        "meta_element_set_no": 999,
        "meta_rev_at_epoch": 88041,
        "meta_bstar": 0.00026792,
        "meta_mean_motion_dot": 8.17e-06,
        "meta_mean_motion_ddot": 0,
        "tle_line1": "1 33887U 97051BG  25338.11763838  .00000817  00000+0  26792-3 0  9993",
        "tle_line2": "2 33887  86.3051   7.1078 0004037 267.9412 152.9243 14.37209414880414"
      },
      "geometry": {
        "type": "Point",
        "coordinates": [
          -178.76070809018225,
          57.14894293180588
        ]
      }
    },
    {
      "type": "Feature",
      "properties": {
        "norad_id": 33953,
        "name": "IRIDIUM 33 DEB",
        "group": "iridium-33-debris",
        "lat": 22.007250682158904,
        "lon": -124.06904964267972,
        "alt_km": 697.2962815472365,
        "timestamp": "2025-12-04T09:47:37.904783+00:00",
        "meta_object_name": "IRIDIUM 33 DEB",
        "meta_object_id": "1997-051BN",
        "meta_epoch": "2025-12-03T05:09:00.715968",
        "meta_mean_motion": 14.55157442,
        "meta_eccentricity": 0.0018449,
        "meta_inclination": 86.3853,
        "meta_ra_of_asc_node": 57.9126,
        "meta_arg_of_pericenter": 131.9522,
        "meta_mean_anomaly": 257.615,
        "meta_ephemeris_type": 0,
        "meta_classification_type": "U",
        "meta_norad_cat_id": 33953,
        "meta_element_set_no": 999,
        "meta_rev_at_epoch": 88165,
        "meta_bstar": 0.0017324,
        "meta_mean_motion_dot": 7.523e-05,
        "meta_mean_motion_ddot": 0,
        "tle_line1": "1 33953U 97051BN  25337.21459162  .00007523  00000+0  17324-2 0  9990",
        "tle_line2": "2 33953  86.3853  57.9126 0018449 131.9522 257.6150 14.55157442881659"
      },
      "geometry": {
        "type": "Point",
        "coordinates": [
          -124.06904964267972,
          22.007250682158904
        ]
      }
    },
    {
      "type": "Feature",
      "properties": {
        "norad_id": 33960,
        "name": "IRIDIUM 33 DEB",
        "group": "iridium-33-debris",
        "lat": 23.990266112580308,
        "lon": 111.76858205709246,
        "alt_km": 614.1965444069092,
        "timestamp": "2025-12-04T09:47:37.904794+00:00",
        "meta_object_name": "IRIDIUM 33 DEB",
        "meta_object_id": "1997-051BV",
        "meta_epoch": "2025-12-03T22:02:56.046336",
        "meta_mean_motion": 14.84433668,
        "meta_eccentricity": 0.00070383,
        "meta_inclination": 86.253,
        "meta_ra_of_asc_node": 293.6703,
        "meta_arg_of_pericenter": 74.2098,
        "meta_mean_anomaly": 348.0492,
        "meta_ephemeris_type": 0,
        "meta_classification_type": "U",
        "meta_norad_cat_id": 33960,
        "meta_element_set_no": 999,
        "meta_rev_at_epoch": 88736,
        "meta_bstar": 0.0061170457,
        "meta_mean_motion_dot": 0.00051818,
        "meta_mean_motion_ddot": 0,
        "tle_line1": "1 33960U 97051BV  25337.91870424  .00051818  00000+0  61170-2 0  9997",
        "tle_line2": "2 33960  86.2530 293.6703 0007038  74.2098 348.0492 14.84433668887364"
      },
      "geometry": {
        "type": "Point",
        "coordinates": [
          111.76858205709246,
          23.990266112580308
        ]
      }
    },
    {
      "type": "Feature",
      "properties": {
        "norad_id": 33966,
        "name": "IRIDIUM 33 DEB",
        "group": "iridium-33-debris",
        "lat": 84.45627950290483,
        "lon": -170.9288584451865,
        "alt_km": 722.2887092574401,
        "timestamp": "2025-12-04T09:47:37.904804+00:00",
        "meta_object_name": "IRIDIUM 33 DEB",
        "meta_object_id": "1997-051CB",
        "meta_epoch": "2025-12-03T17:20:32.441280",
        "meta_mean_motion": 14.49530471,
        "meta_eccentricity": 0.00064145,
        "meta_inclination": 86.3932,
        "meta_ra_of_asc_node": 49.8963,
        "meta_arg_of_pericenter": 220.7133,
        "meta_mean_anomaly": 258.7908,
        "meta_ephemeris_type": 0,
        "meta_classification_type": "U",
        "meta_norad_cat_id": 33966,
        "meta_element_set_no": 999,
        "meta_rev_at_epoch": 88311,
        "meta_bstar": 0.00091882532,
        "meta_mean_motion_dot": 3.542e-05,
        "meta_mean_motion_ddot": 0,
        "tle_line1": "1 33966U 97051CB  25337.72259770  .00003542  00000+0  91883-3 0  9993",
        "tle_line2": "2 33966  86.3932  49.8963 0006414 220.7133 258.7908 14.49530471883110"
      },
      "geometry": {
        "type": "Point",
        "coordinates": [
          -170.9288584451865,
          84.45627950290483
        ]
      }
    },
    {
      "type": "Feature",
      "properties": {
        "norad_id": 34071,
        "name": "IRIDIUM 33 DEB",
        "group": "iridium-33-debris",
        "lat": 15.22790035331445,
        "lon": -159.5468242781591,
        "alt_km": 722.926312107079,
        "timestamp": "2025-12-04T09:47:37.904814+00:00",
        "meta_object_name": "IRIDIUM 33 DEB",
        "meta_object_id": "1997-051CE",
        "meta_epoch": "2025-12-04T02:24:35.019648",
        "meta_mean_motion": 14.49404394,
        "meta_eccentricity": 0.0009494,
        "meta_inclination": 86.3465,
        "meta_ra_of_asc_node": 21.5834,
        "meta_arg_of_pericenter": 130.9901,
        "meta_mean_anomaly": 229.2125,
        "meta_ephemeris_type": 0,
        "meta_classification_type": "U",
        "meta_norad_cat_id": 34071,
        "meta_element_set_no": 999,
        "meta_rev_at_epoch": 88209,
        "meta_bstar": 0.0012417,
        "meta_mean_motion_dot": 4.769e-05,
        "meta_mean_motion_ddot": 0,
        "tle_line1": "1 34071U 97051CE  25338.10040532  .00004769  00000+0  12417-2 0  9995",
        "tle_line2": "2 34071  86.3465  21.5834 0009494 130.9901 229.2125 14.49404394882093"
      },
      "geometry": {
        "type": "Point",
        "coordinates": [
          -159.5468242781591,
          15.22790035331445
        ]
      }
    },
    {
      "type": "Feature",
      "properties": {
        "norad_id": 34077,
        "name": "IRIDIUM 33 DEB",
        "group": "iridium-33-debris",
        "lat": -86.1159573976668,
        "lon": -56.30015833671759,
        "alt_km": 692.8306970481817,
        "timestamp": "2025-12-04T09:47:37.904824+00:00",
        "meta_object_name": "IRIDIUM 33 DEB",
        "meta_object_id": "1997-051CL",
        "meta_epoch": "2025-12-04T03:49:43.202784",
        "meta_mean_motion": 14.64610306,
        "meta_eccentricity": 0.0010902,
        "meta_inclination": 86.3873,
        "meta_ra_of_asc_node": 55.2863,
        "meta_arg_of_pericenter": 66.3634,
        "meta_mean_anomaly": 332.6052,
        "meta_ephemeris_type": 0,
        "meta_classification_type": "U",
        "meta_norad_cat_id": 34077,
        "meta_element_set_no": 999,
        "meta_rev_at_epoch": 88207,
        "meta_bstar": 0.0039797,
        "meta_mean_motion_dot": 0.00021218,
        "meta_mean_motion_ddot": 0,
        "tle_line1": "1 34077U 97051CL  25338.15952781  .00021218  00000+0  39797-2 0  9992",
        "tle_line2": "2 34077  86.3873  55.2863 0010902  66.3634 332.6052 14.64610306882074"
      },
      "geometry": {
        "type": "Point",
        "coordinates": [
          -56.30015833671759,
          -86.1159573976668
        ]
      }
    }
  ]
}